{
    "links": {
        "self": "http://www.neowsapp.com/rest/v1/neo/54016238?api_key=iIulBulltgU6a56xZRHN4H3l9WmuAYTsLGpBGhQ2"
    },
    "id": "54016238",
    "neo_reference_id": "54016238",
    "name": "(2020 FU1)",
    "designation": "2020 FU1",
    "nasa_jpl_url": "http://ssd.jpl.nasa.gov/sbdb.cgi?sstr=54016238",
    "absolute_magnitude_h": 27.762,
    "estimated_diameter": {
        "kilometers": {
            "estimated_diameter_min": 0.0074499778,
            "estimated_diameter_max": 0.0166586567
        },
        "meters": {
            "estimated_diameter_min": 7.4499777657,
            "estimated_diameter_max": 16.6586567149
        },
        "miles": {
            "estimated_diameter_min": 0.0046292001,
            "estimated_diameter_max": 0.0103512062
        },
        "feet": {
            "estimated_diameter_min": 24.4421850528,
            "estimated_diameter_max": 54.6543872966
        }
    },
    "is_potentially_hazardous_asteroid": false,
    "close_approach_data": [
        {
            "close_approach_date": "1981-02-14",
            "close_approach_date_full": "1981-Feb-14 09:52",
            "epoch_date_close_approach": 350992320000,
            "relative_velocity": {
                "kilometers_per_second": "9.233287842",
                "kilometers_per_hour": "33239.8362312765",
                "miles_per_hour": "20653.9415738173"
            },
            "miss_distance": {
                "astronomical": "0.2103723101",
                "lunar": "81.8348286289",
                "kilometers": "31471249.497939487",
                "miles": "19555327.6454274406"
            },
            "orbiting_body": "Earth"
        },
        {
            "close_approach_date": "1986-04-28",
            "close_approach_date_full": "1986-Apr-28 13:08",
            "epoch_date_close_approach": 515077680000,
            "relative_velocity": {
                "kilometers_per_second": "12.5017313353",
                "kilometers_per_hour": "45006.2328069515",
                "miles_per_hour": "27965.1228238527"
            },
            "miss_distance": {
                "astronomical": "0.320976631",
                "lunar": "124.859909459",
                "kilometers": "48017420.31737597",
                "miles": "29836641.441769586"
            },
            "orbiting_body": "Earth"
        },
        {
            "close_approach_date": "2020-03-15",
            "close_approach_date_full": "2020-Mar-15 12:54",
            "epoch_date_close_approach": 1584276840000,
            "relative_velocity": {
                "kilometers_per_second": "3.973464544",
                "kilometers_per_hour": "14304.4723583709",
                "miles_per_hour": "8888.2428384555"
            },
            "miss_distance": {
                "astronomical": "0.0373532623",
                "lunar": "14.5304190347",
                "kilometers": "5587968.477631301",
                "miles": "3472202.6038259138"
            },
            "orbiting_body": "Earth"
        },
        {
            "close_approach_date": "2059-04-20",
            "close_approach_date_full": "2059-Apr-20 21:32",
            "epoch_date_close_approach": 2818099920000,
            "relative_velocity": {
                "kilometers_per_second": "9.0055162152",
                "kilometers_per_hour": "32419.8583746262",
                "miles_per_hour": "20144.4392217226"
            },
            "miss_distance": {
                "astronomical": "0.2062995221",
                "lunar": "80.2505140969",
                "kilometers": "30861969.088177927",
                "miles": "19176738.3542203126"
            },
            "orbiting_body": "Earth"
        }
    ],
    "orbital_data": {
        "orbit_id": "4",
        "orbit_determination_date": "2020-03-26 06:35:01",
        "first_observation_date": "2020-03-16",
        "last_observation_date": "2020-03-25",
        "data_arc_in_days": 9,
        "observations_used": 24,
        "orbit_uncertainty": "8",
        "minimum_orbit_intersection": ".0373519",
        "jupiter_tisserand_invariant": "4.656",
        "epoch_osculation": "2458928.5",
        "eccentricity": ".2758637742990587",
        "semi_major_axis": "1.424412324540149",
        "inclination": "4.290886580372946",
        "ascending_node_longitude": "170.7282501328185",
        "orbital_period": "620.9433936782503",
        "perihelion_distance": "1.031468564534408",
        "perihelion_argument": "3.270435661927494",
        "aphelion_distance": "1.81735608454589",
        "perihelion_time": "2458922.999708012787",
        "mean_anomaly": "3.188865741315377",
        "mean_motion": ".5797629923518255",
        "equinox": "J2000",
        "orbit_class": {
            "orbit_class_type": "AMO",
            "orbit_class_description": "Near-Earth asteroid orbits similar to that of 1221 Amor",
            "orbit_class_range": "1.017 AU < q (perihelion) < 1.3 AU"
        }
    },
    "is_sentry_object": false
}